{
  "norad_id": 66374,
  "name": "STARLINK-35831",
  "history": [
    {
      "epoch": "2026-03-28T13:36:37.847808Z",
      "apogee_km": 475.9609845067798,
      "perigee_km": 474.4573603565477,
      "latitude_deg": -5.944135803230088e-05,
      "longitude_deg": 111.89915679617266,
      "height_km": 476.0310235300822,
      "semi_major_axis_km": 6853.346172431663,
      "eccentricity": 0.0001097,
      "inclination_deg": 53.1584,
      "raan_deg": 142.0426,
      "arg_perigee_deg": 84.1747,
      "mean_anomaly_deg": 275.9378,
      "mean_motion_rev_day": 15.30201975
    }
  ]
}