{"fetched_at":"2026-03-29T02:12:04Z","count":15717,"tles":[{"name":"STARLINK-35831","line1":"1 66374U 25254AC  26087.56710473  .00030071  00000+0  10233-2 0  9991","line2":"2 66374  53.1584 142.0426 0001096  84.1747 275.9378 15.30201975 21906","category":"Starlink"}]}